{
  "type": "FeatureCollection",
  "features": [
    {
      "type": "Feature",
      "properties": {
        "norad_id": 34141,
        "name": "COSMOS 2251 DEB",
        "group": "cosmos-2251-debris",
        "lat": -72.15527305466595,
        "lon": -53.27220395187809,
        "alt_km": 767.6342284376087,
        "timestamp": "2025-12-22T22:44:21.373031+00:00",
        "meta_object_name": "COSMOS 2251 DEB",
        "meta_object_id": "1993-036LN",
        "meta_epoch": "2025-12-22T12:06:19.785888",
        "meta_mean_motion": 14.49332316,
        "meta_eccentricity": 0.00464942,
        "meta_inclination": 74.0109,
        "meta_ra_of_asc_node": 10.5163,
        "meta_arg_of_pericenter": 93.1805,
        "meta_mean_anomaly": 34.0549,
        "meta_ephemeris_type": 0,
        "meta_classification_type": "U",
        "meta_norad_cat_id": 34141,
        "meta_element_set_no": 999,
        "meta_rev_at_epoch": 87835,
        "meta_bstar": 0.0013928106,
        "meta_mean_motion_dot": 5.369e-05,
        "meta_mean_motion_ddot": 0,
        "tle_line1": "1 34141U 93036LN  25356.50439567  .00005369  00000+0  13928-2 0  9991",
        "tle_line2": "2 34141  74.0109  10.5163 0046494  93.1805  34.0549 14.49332316878357"
      },
      "geometry": {
        "type": "Point",
        "coordinates": [
          -53.27220395187809,
          -72.15527305466595
        ]
      }
    },
    {
      "type": "Feature",
      "properties": {
        "norad_id": 34270,
        "name": "COSMOS 2251 DEB",
        "group": "cosmos-2251-debris",
        "lat": 71.65328942145491,
        "lon": 47.12292348735293,
        "alt_km": 637.7390191967388,
        "timestamp": "2025-12-22T22:44:21.373041+00:00",
        "meta_object_name": "COSMOS 2251 DEB",
        "meta_object_id": "1993-036LQ",
        "meta_epoch": "2025-12-22T05:54:21.131424",
        "meta_mean_motion": 14.65238194,
        "meta_eccentricity": 0.00479235,
        "meta_inclination": 74.0119,
        "meta_ra_of_asc_node": 288.3075,
        "meta_arg_of_pericenter": 78.2442,
        "meta_mean_anomaly": 282.4097,
        "meta_ephemeris_type": 0,
        "meta_classification_type": "U",
        "meta_norad_cat_id": 34270,
        "meta_element_set_no": 999,
        "meta_rev_at_epoch": 89235,
        "meta_bstar": 0.00069035113,
        "meta_mean_motion_dot": 3.753e-05,
        "meta_mean_motion_ddot": 0,
        "tle_line1": "1 34270U 93036LQ  25356.24607791  .00003753  00000+0  69035-3 0  9997",
        "tle_line2": "2 34270  74.0119 288.3075 0047923  78.2442 282.4097 14.65238194892357"
      },
      "geometry": {
        "type": "Point",
        "coordinates": [
          47.12292348735293,
          71.65328942145491
        ]
      }
    },
    {
      "type": "Feature",
      "properties": {
        "norad_id": 34271,
        "name": "COSMOS 2251 DEB",
        "group": "cosmos-2251-debris",
        "lat": -66.59868408891244,
        "lon": 40.958646321951726,
        "alt_km": 652.74913916891,
        "timestamp": "2025-12-22T22:44:21.373052+00:00",
        "meta_object_name": "COSMOS 2251 DEB",
        "meta_object_id": "1993-036LR",
        "meta_epoch": "2025-12-22T11:55:42.494304",
        "meta_mean_motion": 14.70960843,
        "meta_eccentricity": 0.00182961,
        "meta_inclination": 74.0192,
        "meta_ra_of_asc_node": 180.3666,
        "meta_arg_of_pericenter": 233.6422,
        "meta_mean_anomaly": 154.5734,
        "meta_ephemeris_type": 0,
        "meta_classification_type": "U",
        "meta_norad_cat_id": 34271,
        "meta_element_set_no": 999,
        "meta_rev_at_epoch": 88378,
        "meta_bstar": 0.0022763733,
        "meta_mean_motion_dot": 0.00013988,
        "meta_mean_motion_ddot": 0,
        "tle_line1": "1 34271U 93036LR  25356.49701961  .00013988  00000+0  22764-2 0  9997",
        "tle_line2": "2 34271  74.0192 180.3666 0018296 233.6422 154.5734 14.70960843883785"
      },
      "geometry": {
        "type": "Point",
        "coordinates": [
          40.958646321951726,
          -66.59868408891244
        ]
      }
    },
    {
      "type": "Feature",
      "properties": {
        "norad_id": 34273,
        "name": "COSMOS 2251 DEB",
        "group": "cosmos-2251-debris",
        "lat": -71.25619032799531,
        "lon": 10.388946324950544,
        "alt_km": 695.2703264636984,
        "timestamp": "2025-12-22T22:44:21.373062+00:00",
        "meta_object_name": "COSMOS 2251 DEB",
        "meta_object_id": "1993-036LT",
        "meta_epoch": "2025-12-22T06:58:03.451008",
        "meta_mean_motion": 14.61305097,
        "meta_eccentricity": 0.00135807,
        "meta_inclination": 74.0358,
        "meta_ra_of_asc_node": 69.1662,
        "meta_arg_of_pericenter": 194.9715,
        "meta_mean_anomaly": 229.1706,
        "meta_ephemeris_type": 0,
        "meta_classification_type": "U",
        "meta_norad_cat_id": 34273,
        "meta_element_set_no": 999,
        "meta_rev_at_epoch": 88761,
        "meta_bstar": 0.00082891395,
        "meta_mean_motion_dot": 4.071e-05,
        "meta_mean_motion_ddot": 0,
        "tle_line1": "1 34273U 93036LT  25356.29031772  .00004071  00000+0  82891-3 0  9994",
        "tle_line2": "2 34273  74.0358  69.1662 0013580 194.9715 229.1706 14.61305097887614"
      },
      "geometry": {
        "type": "Point",
        "coordinates": [
          10.388946324950544,
          -71.25619032799531
        ]
      }
    },
    {
      "type": "Feature",
      "properties": {
        "norad_id": 34274,
        "name": "COSMOS 2251 DEB",
        "group": "cosmos-2251-debris",
        "lat": 44.699964893499974,
        "lon": -147.59189409717632,
        "alt_km": 666.9365955444237,
        "timestamp": "2025-12-22T22:44:21.373073+00:00",
        "meta_object_name": "COSMOS 2251 DEB",
        "meta_object_id": "1993-036LU",
        "meta_epoch": "2025-12-22T14:30:07.644096",
        "meta_mean_motion": 14.64886943,
        "meta_eccentricity": 0.00214539,
        "meta_inclination": 74.0037,
        "meta_ra_of_asc_node": 49.5609,
        "meta_arg_of_pericenter": 199.0285,
        "meta_mean_anomaly": 284.8567,
        "meta_ephemeris_type": 0,
        "meta_classification_type": "U",
        "meta_norad_cat_id": 34274,
        "meta_element_set_no": 999,
        "meta_rev_at_epoch": 88820,
        "meta_bstar": 0.0010110757,
        "meta_mean_motion_dot": 5.396e-05,
        "meta_mean_motion_ddot": 0,
        "tle_line1": "1 34274U 93036LU  25356.60425514  .00005396  00000+0  10111-2 0  9997",
        "tle_line2": "2 34274  74.0037  49.5609 0021453 199.0285 284.8567 14.64886943888204"
      },
      "geometry": {
        "type": "Point",
        "coordinates": [
          -147.59189409717632,
          44.699964893499974
        ]
      }
    },
    {
      "type": "Feature",
      "properties": {
        "norad_id": 34276,
        "name": "COSMOS 2251 DEB",
        "group": "cosmos-2251-debris",
        "lat": 26.560779994915748,
        "lon": -122.31986674478105,
        "alt_km": 692.5650633762425,
        "timestamp": "2025-12-22T22:44:21.373083+00:00",
        "meta_object_name": "COSMOS 2251 DEB",
        "meta_object_id": "1993-036LW",
        "meta_epoch": "2025-12-21T23:47:17.316096",
        "meta_mean_motion": 14.57284799,
        "meta_eccentricity": 0.0022254,
        "meta_inclination": 74.0239,
        "meta_ra_of_asc_node": 67.7315,
        "meta_arg_of_pericenter": 213.6612,
        "meta_mean_anomaly": 323.8377,
        "meta_ephemeris_type": 0,
        "meta_classification_type": "U",
        "meta_norad_cat_id": 34276,
        "meta_element_set_no": 999,
        "meta_rev_at_epoch": 88727,
        "meta_bstar": 0.00065538,
        "meta_mean_motion_dot": 2.946e-05,
        "meta_mean_motion_ddot": 0,
        "tle_line1": "1 34276U 93036LW  25355.99117264  .00002946  00000+0  65538-3 0  9992",
        "tle_line2": "2 34276  74.0239  67.7315 0022254 213.6612 323.8377 14.57284799887275"
      },
      "geometry": {
        "type": "Point",
        "coordinates": [
          -122.31986674478105,
          26.560779994915748
        ]
      }
    },
    {
      "type": "Feature",
      "properties": {
        "norad_id": 34297,
        "name": "COSMOS 2251 DEB",
        "group": "cosmos-2251-debris",
        "lat": 49.83165324144484,
        "lon": 65.68360378545836,
        "alt_km": 776.1725603096475,
        "timestamp": "2025-12-22T22:44:21.373093+00:00",
        "meta_object_name": "COSMOS 2251 DEB",
        "meta_object_id": "1993-036MT",
        "meta_epoch": "2025-12-22T12:55:32.427264",
        "meta_mean_motion": 14.36637272,
        "meta_eccentricity": 0.00176643,
        "meta_inclination": 74.0487,
        "meta_ra_of_asc_node": 266.2396,
        "meta_arg_of_pericenter": 333.1294,
        "meta_mean_anomaly": 200.1498,
        "meta_ephemeris_type": 0,
        "meta_classification_type": "U",
        "meta_norad_cat_id": 34297,
        "meta_element_set_no": 999,
        "meta_rev_at_epoch": 88205,
        "meta_bstar": 0.00012577361,
        "meta_mean_motion_dot": 3.44e-06,
        "meta_mean_motion_ddot": 0,
        "tle_line1": "1 34297U 93036MT  25356.53856976  .00000344  00000+0  12577-3 0  9991",
        "tle_line2": "2 34297  74.0487 266.2396 0017664 333.1294 200.1498 14.36637272882058"
      },
      "geometry": {
        "type": "Point",
        "coordinates": [
          65.68360378545836,
          49.83165324144484
        ]
      }
    }
  ]
}